IRIDIUM 155             
1 43573U 18061E   21079.45364045  .00000073  00000-0  19151-4 0  9999
2 43573  86.3970 136.9436 0002680 102.3673 257.7823 14.34218724138919
IRIDIUM 154             
1 43574U 18061F   21079.64392166  .00000076  00000-0  20006-4 0  9990
2 43574  86.3974 136.9066 0001979  94.5566 265.5856 14.34217768138994
IRIDIUM 163             
1 43575U 18061G   21080.18304329  .00000070  00000-0  18064-4 0  9991
2 43575  86.3971 136.6548 0002362  81.4439 278.7024 14.34218291139047
IRIDIUM 156             
1 43576U 18061H   21079.52975704  .00000074  00000-0  19384-4 0  9999
2 43576  86.3972 136.9328 0002586  91.5582 268.5910 14.34216958138944
IRIDIUM 164             
1 43577U 18061J   21079.44096686  .00000077  00000-0  20274-4 0  9997
2 43577  86.3973 136.9811 0002085  90.9333 269.2102 14.34217124138974
IRIDIUM 159             
1 43578U 18061K   21079.61855109  .00000077  00000-0  20482-4 0  9991
2 43578  86.3971 136.8840 0002087  93.9430 266.2004 14.34217073138967
IRIDIUM 180             
1 43922U 19002A   21079.89712316  .00000077  00000-0  20497-4 0  9998
2 43922  86.3931  73.5816 0001509  64.8161 295.3191 14.34217409114611
IRIDIUM 176             
1 43923U 19002B   21080.12043112  .00000116  00000-0  14510-4 0  9991
2 43923  86.6066  73.5198 0002229  90.0150 270.1322 14.72251045117634
IRIDIUM 168             
1 43924U 19002C   21079.89078836  .00000071  00000-0  18371-4 0  9994
2 43924  86.3934  73.6074 0001930  87.2557 272.8860 14.34216437114599
IRIDIUM 173             
1 43925U 19002D   21079.87810214  .00000072  00000-0  18806-4 0  9991
2 43925  86.3930  73.5794 0002023  85.6320 274.5107 14.34217110114578
IRIDIUM 169             
1 43926U 19002E   21080.14703422  .00000084  00000-0  20809-4 0  9995
2 43926  86.4179 105.0894 0006152 142.2400 217.9230 14.38609189115049
IRIDIUM 172             
1 43927U 19002F   21079.94151240  .00000046  00000-0  95303-5 0  9997
2 43927  86.3930  73.5549 0001941  84.2459 275.8958 14.34216454114594
IRIDIUM 175             
1 43928U 19002G   21079.91034427  .00000111  00000-0  13662-4 0  9992
2 43928  86.6050  73.4450 0002764  77.2474 282.9052 14.72251580117592
IRIDIUM 171             
1 43929U 19002H   21079.92249039  .00000078  00000-0  20706-4 0  9990
2 43929  86.3940  73.6566 0001932  88.0317 272.1100 14.34217514114588
IRIDIUM 170             
1 43930U 19002J   21080.12658550  .00000121  00000-0  15261-4 0  9997
2 43930  86.6066  73.5237 0002346  83.9945 276.1539 14.72251236117648
IRIDIUM 167             
1 43931U 19002K   21079.91614093  .00000073  00000-0  18849-4 0  9998
2 43931  86.3931  73.5711 0001536  73.4990 286.6375 14.34218339114587
